#aV2019 10 19  0  0  0.00000000     288 DD+AD WGS84 FIT  NGA
## 2075 518400.00000000   300.00000000 58775 0.0000000000000
+   31     1  2  3  5  6  7  8  9 10 11 12 13 14 15 16 17 18
+         19 20 21 22 23 24 25 26 27 28 29 30 31 32  0  0  0
+          0  0  0  0  0  0  0  0  0  0  0  0  0  0  0  0  0
+          0  0  0  0  0  0  0  0  0  0  0  0  0  0  0  0  0
+          0  0  0  0  0  0  0  0  0  0  0  0  0  0  0  0  0
++         2  2  2  2  2  2  2  2  2  2  2  2  2  2  2  2  2
++         2  2  2  2  2  2  2  2  2  2  2  2  2  2  0  0  0
++         0  0  0  0  0  0  0  0  0  0  0  0  0  0  0  0  0
++         0  0  0  0  0  0  0  0  0  0  0  0  0  0  0  0  0
++         0  0  0  0  0  0  0  0  0  0  0  0  0  0  0  0  0
%c cc cc ccc ccc cccc cccc cccc cccc ccccc ccccc ccccc ccccc
%c cc cc ccc ccc cccc cccc cccc cccc ccccc ccccc ccccc ccccc
%f  0.0000000  0.000000000  0.00000000000  0.000000000000000
%f  0.0000000  0.000000000  0.00000000000  0.000000000000000
%i    0    0    0    0      0      0      0      0         0
%i    0    0    0    0      0      0      0      0         0
/*      NGA, ST. LOUIS,MO.                                  
/*   EPHEMERIS COMPUTED FROM 2 DAYS OF DATA                 
/*   EPOCHA v5 SMOOTHER                                     
/*   G1762 IERS2010 SATAF SATAPC                            
*  2019 10 19 18 50  0.00000000
P  1 -14216.322304  21717.972986   4554.085790   -168.246653                    
V  1    436.837932  -6572.934298  31626.566057     -0.131467                    
P  2  16673.176150  -4269.683815 -19575.124916   -329.273233                    
V  2  -8707.281806  24832.472813 -12568.906578     -0.078791                    
P  3 -15039.138889  13196.721708 -17481.833429    -24.545103                    
V  3 -22172.503253   -169.471378  19096.821353     -0.050188                    
P  5  26480.303184  -3068.539305    695.183434     -2.495406                    
V  5   1327.223328   2864.408233 -31377.443408     -0.004058                    
P  6  10606.205993  11359.845123 -21491.964910    -95.899847                    
V  6 -12412.511977  24371.667207   6767.844350     -0.126935                    
P  7  -3668.250641  23932.429287  10623.794511   -130.574664                    
V  7  -8590.425303  10509.317244 -27836.855190     -0.080676                    
P  8 -13064.550155   7492.943654  21916.609098    -10.459094                    
V  8 -15772.609231 -22783.737469  -1407.098231     -0.012693                    
P  9   4340.773353  22673.932363 -13175.124724    -61.057456                    
V  9 -11506.871770 -12306.908948 -25070.815004     -0.100888                    
P 10 -15025.161476 -11862.459149  18564.991127   -100.657419                    
V 10  23208.623037  -2963.456028  16730.877396     -0.153114                    
P 11  -9109.653076  21909.363909  11719.758687   -473.335184                    
V 11  -3517.873778 -15682.068467  25165.027389      0.112421                    
P 12  19659.820673  -9974.622329 -14905.808556    192.378111                    
V 12  18577.897195   1662.246126  23887.970999     -0.039027                    
P 13  16937.373553   2756.400550  20173.694021    -37.913300                    
V 13  10773.061109  23504.205724 -12117.376586      0.022110                    
P 14 -18039.717929 -15631.227984 -11515.422267    -55.242138                    
V 14  -5344.733853 -14272.651043  26804.674267      0.020761                    
P 15  12501.656104  -9634.213709  21075.249732   -278.739515                    
V 15  17643.017908  21184.880232   -382.270663      0.026981                    
P 16 -26756.935066  -1243.355509  -1091.749694    -84.855927                    
V 16   1169.518777  -1773.846018 -31870.085662     -0.036208                    
P 17  14851.376825  21896.814133  -2353.437434    147.170405                    
V 17     51.185960   4031.470603  32036.346470      0.070067                    
P 18 -16331.677662  16743.632649  11985.533838     94.209490                    
V 18   3825.872052 -15827.854176  26324.344341      0.027440                    
P 19  17130.122032  17756.679407 -10097.564109   -251.498021                    
V 19   4204.889501  11777.191642  28709.661435      0.052125                    
P 20  -4713.045253 -15141.290158  21209.211309    527.243842                    
V 20  26740.237736  -5425.236260   1873.182005      0.000999                    
P 21  -1242.580127 -23112.422115  13988.471055    -99.765077                    
V 21   8197.973145 -14365.833014 -24210.826441      0.061488                    
P 22 -21120.509519  11441.735668 -11009.607651   -765.249959                    
V 22 -14751.912797  -1278.604944  26546.536317     -0.030965                    
P 23  -5351.723043  16814.406015 -19391.904951   -160.512135                    
V 23 -16058.483942 -19938.614527 -13016.782326      0.021713                    
P 24  14413.850824 -20889.877355   7022.928169     -3.692609                    
V 24   -222.670968   9952.436298  29708.328836     -0.005104                    
P 25   4909.317315 -15115.014026 -21453.080551    -15.742521                    
V 25  26752.161189  -1098.676481   7216.276100     -0.008567                    
P 26 -23825.823424  -5367.019332 -10688.835609     65.180717                    
V 26  13186.719083  -3913.960284 -27276.749766      0.085453                    
P 27 -18527.137498  -5527.366603  18234.014629    -92.768466                    
V 27 -12068.146929 -19876.659946 -17878.014888     -0.121809                    
P 28  14243.524126  12968.436451  18845.662851    758.448012                    
V 28 -22692.120096    565.740811  17434.958353     -0.013439                    
P 29  -1497.353646 -22046.857631 -14748.981403     66.948299                    
V 29  10653.952640  15362.128305 -24119.436887     -0.101451                    
P 30   5146.892173  18549.584243  18250.297629    -65.139419                    
V 30 -12717.486948  19553.592569 -16511.195797     -0.082413                    
P 31 -12339.078008  -9160.355485 -21646.537020      2.569660                    
V 31  13177.325651 -24137.416435   3151.513494     -0.025671                    
P 32 -16462.305776 -20752.654936  -2671.182080     96.873236                    
V 32    375.243517  -4441.995031  31347.807210      0.128012                    
EOF
